ONEWEB-0678             
1 56714U 23068E   23341.35641563  .00000174  00000+0  42785-3 0  9998
2 56714  87.9015  82.8650 0001757 114.7278 245.4035 13.15547173 28655
ONEWEB-0679             
1 56715U 23068F   23341.58335648 -.00786011  00000+0 -21539+0 0  9991
2 56715  86.8814  58.4101 0013005 233.6517 236.4461 14.50174344 30525
ONEWEB-0680             
1 56716U 23068G   23340.54030694 -.00062750  00000+0 -12621+0 0  9999
2 56716  87.9743  67.8877 0003054 116.8283 243.3171 13.34643323 29777
ONEWEB-0681             
1 56717U 23068H   23341.32544917 -.00027309  00000+0 -54531-1 0  9994
2 56717  87.9727  67.7229 0003002 133.9025 226.2364 13.34872746 29864
ONEWEB-0682             
1 56718U 23068J   23340.33042760 -.00000357  00000+0 -98230-3 0  9994
2 56718  87.8997  83.1213 0002355  93.9148 266.2252 13.15543368 27984
ONEWEB-0683             
1 56719U 23068K   23340.33996035  .00000003  00000+0 -25424-4 0  9991
2 56719  87.9007  83.0891 0002001  98.6282 261.5076 13.15546808 27959
ONEWEB-0684             
1 56720U 23068L   23341.25970036  .00000075  00000+0  16428-3 0  9999
2 56720  87.9002  82.9790 0001838 122.6869 237.4439 13.15549816 28608
ONEWEB-0686             
1 56721U 23068M   23341.25002315 -.00796848  00000+0 -21638+0 0  9993
2 56721  86.8752  58.4850 0012133 238.5494 130.8983 14.50654393 30470
